[{"OBJECT_NAME":"STARLINK-34795","OBJECT_ID":"2025-212J","EPOCH":"2025-10-11T08:00:01.999872","MEAN_MOTION":15.54079793,"ECCENTRICITY":0.00015019,"INCLINATION":53.1597,"RA_OF_ASC_NODE":320.6828,"ARG_OF_PERICENTER":72.6066,"MEAN_ANOMALY":109.1479,"EPHEMERIS_TYPE":0,"CLASSIFICATION_TYPE":"U","NORAD_CAT_ID":65684,"ELEMENT_SET_NO":999,"REV_AT_EPOCH":429,"BSTAR":-0.036794676,"MEAN_MOTION_DOT":-0.02152938,"MEAN_MOTION_DDOT":0},{"OBJECT_NAME":"STARLINK-35145","OBJECT_ID":"2025-212K","EPOCH":"2025-10-11T06:00:02.000160","MEAN_MOTION":15.54480081,"ECCENTRICITY":0.00012883,"INCLINATION":53.1596,"RA_OF_ASC_NODE":321.0594,"ARG_OF_PERICENTER":69.4976,"MEAN_ANOMALY":17.2083,"EPHEMERIS_TYPE":0,"CLASSIFICATION_TYPE":"U","NORAD_CAT_ID":65685,"ELEMENT_SET_NO":999,"REV_AT_EPOCH":422,"BSTAR":-0.03641992,"MEAN_MOTION_DOT":-0.02161459,"MEAN_MOTION_DDOT":0},{"OBJECT_NAME":"STARLINK-35137","OBJECT_ID":"2025-212L","EPOCH":"2025-10-11T06:00:02.000160","MEAN_MOTION":15.6293453,"ECCENTRICITY":0.0001447,"INCLINATION":53.1594,"RA_OF_ASC_NODE":320.0148,"ARG_OF_PERICENTER":87.8764,"MEAN_ANOMALY":144.2702,"EPHEMERIS_TYPE":0,"CLASSIFICATION_TYPE":"U","NORAD_CAT_ID":65686,"ELEMENT_SET_NO":999,"REV_AT_EPOCH":427,"BSTAR":-0.024748262,"MEAN_MOTION_DOT":-0.02005706,"MEAN_MOTION_DDOT":0},{"OBJECT_NAME":"STARLINK-34856","OBJECT_ID":"2025-212M","EPOCH":"2025-10-11T06:00:02.000160","MEAN_MOTION":15.54479305,"ECCENTRICITY":0.00011904,"INCLINATION":53.1596,"RA_OF_ASC_NODE":321.0636,"ARG_OF_PERICENTER":69.1641,"MEAN_ANOMALY":15.6248,"EPHEMERIS_TYPE":0,"CLASSIFICATION_TYPE":"U","NORAD_CAT_ID":65687,"ELEMENT_SET_NO":999,"REV_AT_EPOCH":427,"BSTAR":-0.036370471,"MEAN_MOTION_DOT":-0.02158738,"MEAN_MOTION_DDOT":0},{"OBJECT_NAME":"STARLINK-34930","OBJECT_ID":"2025-212N","EPOCH":"2025-10-11T06:00:02.000160","MEAN_MOTION":15.54478701,"ECCENTRICITY":0.00010476,"INCLINATION":53.1599,"RA_OF_ASC_NODE":321.0387,"ARG_OF_PERICENTER":64.1581,"MEAN_ANOMALY":32.1316,"EPHEMERIS_TYPE":0,"CLASSIFICATION_TYPE":"U","NORAD_CAT_ID":65688,"ELEMENT_SET_NO":999,"REV_AT_EPOCH":437,"BSTAR":-0.036308717,"MEAN_MOTION_DOT":-0.02155351,"MEAN_MOTION_DDOT":0},{"OBJECT_NAME":"STARLINK-34875","OBJECT_ID":"2025-212P","EPOCH":"2025-10-11T06:00:02.000160","MEAN_MOTION":15.54477603,"ECCENTRICITY":0.00012108,"INCLINATION":53.1599,"RA_OF_ASC_NODE":321.0555,"ARG_OF_PERICENTER":69.9374,"MEAN_ANOMALY":18.6868,"EPHEMERIS_TYPE":0,"CLASSIFICATION_TYPE":"U","NORAD_CAT_ID":65689,"ELEMENT_SET_NO":999,"REV_AT_EPOCH":437,"BSTAR":-0.036338028,"MEAN_MOTION_DOT":-0.02156925,"MEAN_MOTION_DDOT":0},{"OBJECT_NAME":"STARLINK-34790","OBJECT_ID":"2025-212Q","EPOCH":"2025-10-11T06:00:02.000160","MEAN_MOTION":15.54482115,"ECCENTRICITY":0.00011528,"INCLINATION":53.1598,"RA_OF_ASC_NODE":321.0475,"ARG_OF_PERICENTER":65.6602,"MEAN_ANOMALY":26.7945,"EPHEMERIS_TYPE":0,"CLASSIFICATION_TYPE":"U","NORAD_CAT_ID":65690,"ELEMENT_SET_NO":999,"REV_AT_EPOCH":422,"BSTAR":-0.036443494,"MEAN_MOTION_DOT":-0.02162749,"MEAN_MOTION_DDOT":0},{"OBJECT_NAME":"STARLINK-34691","OBJECT_ID":"2025-212R","EPOCH":"2025-10-11T06:00:02.000160","MEAN_MOTION":15.62926837,"ECCENTRICITY":0.00013875,"INCLINATION":53.1589,"RA_OF_ASC_NODE":320.0102,"ARG_OF_PERICENTER":88.1562,"MEAN_ANOMALY":145.9085,"EPHEMERIS_TYPE":0,"CLASSIFICATION_TYPE":"U","NORAD_CAT_ID":65691,"ELEMENT_SET_NO":999,"REV_AT_EPOCH":437,"BSTAR":-0.024540215,"MEAN_MOTION_DOT":-0.01990328,"MEAN_MOTION_DDOT":0},{"OBJECT_NAME":"STARLINK-34825","OBJECT_ID":"2025-212S","EPOCH":"2025-10-11T06:00:02.000160","MEAN_MOTION":15.54478766,"ECCENTRICITY":0.00010314,"INCLINATION":53.1597,"RA_OF_ASC_NODE":321.0434,"ARG_OF_PERICENTER":63.7533,"MEAN_ANOMALY":30.6198,"EPHEMERIS_TYPE":0,"CLASSIFICATION_TYPE":"U","NORAD_CAT_ID":65692,"ELEMENT_SET_NO":999,"REV_AT_EPOCH":437,"BSTAR":-0.036344954,"MEAN_MOTION_DOT":-0.02157251,"MEAN_MOTION_DDOT":0},{"OBJECT_NAME":"STARLINK-35060","OBJECT_ID":"2025-212T","EPOCH":"2025-10-11T06:00:02.000160","MEAN_MOTION":15.62928705,"ECCENTRICITY":0.00013771,"INCLINATION":53.1591,"RA_OF_ASC_NODE":320.0063,"ARG_OF_PERICENTER":86.9582,"MEAN_ANOMALY":149.0227,"EPHEMERIS_TYPE":0,"CLASSIFICATION_TYPE":"U","NORAD_CAT_ID":65693,"ELEMENT_SET_NO":999,"REV_AT_EPOCH":437,"BSTAR":-0.024594652,"MEAN_MOTION_DOT":-0.01994325,"MEAN_MOTION_DDOT":0},{"OBJECT_NAME":"STARLINK-35204","OBJECT_ID":"2025-212U","EPOCH":"2025-10-11T06:00:02.000160","MEAN_MOTION":15.54476829,"ECCENTRICITY":0.00012926,"INCLINATION":53.1597,"RA_OF_ASC_NODE":321.0309,"ARG_OF_PERICENTER":68.2444,"MEAN_ANOMALY":31.8807,"EPHEMERIS_TYPE":0,"CLASSIFICATION_TYPE":"U","NORAD_CAT_ID":65694,"ELEMENT_SET_NO":999,"REV_AT_EPOCH":438,"BSTAR":-0.0363132,"MEAN_MOTION_DOT":-0.0215562,"MEAN_MOTION_DDOT":0},{"OBJECT_NAME":"STARLINK-35221","OBJECT_ID":"2025-212V","EPOCH":"2025-10-11T06:00:02.000160","MEAN_MOTION":15.54477201,"ECCENTRICITY":0.000121,"INCLINATION":53.1597,"RA_OF_ASC_NODE":321.0268,"ARG_OF_PERICENTER":66.1389,"MEAN_ANOMALY":35.9023,"EPHEMERIS_TYPE":0,"CLASSIFICATION_TYPE":"U","NORAD_CAT_ID":65695,"ELEMENT_SET_NO":999,"REV_AT_EPOCH":438,"BSTAR":-0.036304266,"MEAN_MOTION_DOT":-0.0215512,"MEAN_MOTION_DDOT":0},{"OBJECT_NAME":"STARLINK-34734","OBJECT_ID":"2025-212W","EPOCH":"2025-10-11T06:00:02.000160","MEAN_MOTION":15.54477951,"ECCENTRICITY":0.00012574,"INCLINATION":53.1596,"RA_OF_ASC_NODE":321.0237,"ARG_OF_PERICENTER":68.6356,"MEAN_ANOMALY":35.3237,"EPHEMERIS_TYPE":0,"CLASSIFICATION_TYPE":"U","NORAD_CAT_ID":65696,"ELEMENT_SET_NO":999,"REV_AT_EPOCH":437,"BSTAR":-0.036402196,"MEAN_MOTION_DOT":-0.02160355,"MEAN_MOTION_DDOT":0},{"OBJECT_NAME":"STARLINK-35113","OBJECT_ID":"2025-212X","EPOCH":"2025-10-11T06:00:02.000160","MEAN_MOTION":15.54477527,"ECCENTRICITY":0.00012685,"INCLINATION":53.1596,"RA_OF_ASC_NODE":321.0199,"ARG_OF_PERICENTER":66.8114,"MEAN_ANOMALY":39.0643,"EPHEMERIS_TYPE":0,"CLASSIFICATION_TYPE":"U","NORAD_CAT_ID":65697,"ELEMENT_SET_NO":999,"REV_AT_EPOCH":437,"BSTAR":-0.036375494,"MEAN_MOTION_DOT":-0.02158929,"MEAN_MOTION_DDOT":0},{"OBJECT_NAME":"STARLINK-35090","OBJECT_ID":"2025-212Y","EPOCH":"2025-10-10T09:30:19.247040","MEAN_MOTION":15.58942657,"ECCENTRICITY":0.00014076,"INCLINATION":53.1588,"RA_OF_ASC_NODE":325.1422,"ARG_OF_PERICENTER":85.8949,"MEAN_ANOMALY":274.2226,"EPHEMERIS_TYPE":0,"CLASSIFICATION_TYPE":"U","NORAD_CAT_ID":65698,"ELEMENT_SET_NO":999,"REV_AT_EPOCH":421,"BSTAR":-0.011677215,"MEAN_MOTION_DOT":-0.00845453,"MEAN_MOTION_DDOT":0},{"OBJECT_NAME":"STARLINK-35086","OBJECT_ID":"2025-212Z","EPOCH":"2025-10-11T06:00:02.000160","MEAN_MOTION":15.54477613,"ECCENTRICITY":0.00013283,"INCLINATION":53.1595,"RA_OF_ASC_NODE":321.007,"ARG_OF_PERICENTER":68.8248,"MEAN_ANOMALY":42.801,"EPHEMERIS_TYPE":0,"CLASSIFICATION_TYPE":"U","NORAD_CAT_ID":65699,"ELEMENT_SET_NO":999,"REV_AT_EPOCH":427,"BSTAR":-0.03634338,"MEAN_MOTION_DOT":-0.02157288,"MEAN_MOTION_DDOT":0},{"OBJECT_NAME":"STARLINK-35101","OBJECT_ID":"2025-212AA","EPOCH":"2025-10-11T06:00:02.000160","MEAN_MOTION":15.54478764,"ECCENTRICITY":0.00011996,"INCLINATION":53.1598,"RA_OF_ASC_NODE":321.0117,"ARG_OF_PERICENTER":70.3215,"MEAN_ANOMALY":39.3873,"EPHEMERIS_TYPE":0,"CLASSIFICATION_TYPE":"U","NORAD_CAT_ID":65700,"ELEMENT_SET_NO":999,"REV_AT_EPOCH":427,"BSTAR":-0.036388509,"MEAN_MOTION_DOT":-0.02159654,"MEAN_MOTION_DDOT":0},{"OBJECT_NAME":"STARLINK-35046","OBJECT_ID":"2025-212AB","EPOCH":"2025-10-11T06:00:02.000160","MEAN_MOTION":15.54479785,"ECCENTRICITY":0.00013469,"INCLINATION":53.1598,"RA_OF_ASC_NODE":321.0032,"ARG_OF_PERICENTER":66.0248,"MEAN_ANOMALY":47.5164,"EPHEMERIS_TYPE":0,"CLASSIFICATION_TYPE":"U","NORAD_CAT_ID":65701,"ELEMENT_SET_NO":999,"REV_AT_EPOCH":437,"BSTAR":-0.036407183,"MEAN_MOTION_DOT":-0.02160809,"MEAN_MOTION_DDOT":0},{"OBJECT_NAME":"STARLINK-35075","OBJECT_ID":"2025-212AC","EPOCH":"2025-10-11T06:00:02.000160","MEAN_MOTION":15.54481359,"ECCENTRICITY":0.00012609,"INCLINATION":53.16,"RA_OF_ASC_NODE":320.9991,"ARG_OF_PERICENTER":68.5403,"MEAN_ANOMALY":46.9176,"EPHEMERIS_TYPE":0,"CLASSIFICATION_TYPE":"U","NORAD_CAT_ID":65702,"ELEMENT_SET_NO":999,"REV_AT_EPOCH":437,"BSTAR":-0.036441068,"MEAN_MOTION_DOT":-0.02162642,"MEAN_MOTION_DDOT":0},{"OBJECT_NAME":"STARLINK-34839","OBJECT_ID":"2025-212AD","EPOCH":"2025-10-11T06:00:02.000160","MEAN_MOTION":15.54478752,"ECCENTRICITY":0.00013243,"INCLINATION":53.1596,"RA_OF_ASC_NODE":320.995,"ARG_OF_PERICENTER":66.7896,"MEAN_ANOMALY":50.5854,"EPHEMERIS_TYPE":0,"CLASSIFICATION_TYPE":"U","NORAD_CAT_ID":65703,"ELEMENT_SET_NO":999,"REV_AT_EPOCH":437,"BSTAR":-0.036357628,"MEAN_MOTION_DOT":-0.02158115,"MEAN_MOTION_DDOT":0},{"OBJECT_NAME":"STARLINK-34086","OBJECT_ID":"2025-216A","EPOCH":"2025-10-11T06:00:02.000160","MEAN_MOTION":15.69055557,"ECCENTRICITY":0.00012184,"INCLINATION":53.1594,"RA_OF_ASC_NODE":310.8112,"ARG_OF_PERICENTER":83.6903,"MEAN_ANOMALY":163.5906,"EPHEMERIS_TYPE":0,"CLASSIFICATION_TYPE":"U","NORAD_CAT_ID":65734,"ELEMENT_SET_NO":999,"REV_AT_EPOCH":352,"BSTAR":-0.018387387,"MEAN_MOTION_DOT":-0.01921687,"MEAN_MOTION_DDOT":0},{"OBJECT_NAME":"STARLINK-35099","OBJECT_ID":"2025-216B","EPOCH":"2025-10-11T06:00:02.000160","MEAN_MOTION":15.69053174,"ECCENTRICITY":0.00011147,"INCLINATION":53.1597,"RA_OF_ASC_NODE":310.8063,"ARG_OF_PERICENTER":90.3178,"MEAN_ANOMALY":158.881,"EPHEMERIS_TYPE":0,"CLASSIFICATION_TYPE":"U","NORAD_CAT_ID":65735,"ELEMENT_SET_NO":999,"REV_AT_EPOCH":357,"BSTAR":-0.018326378,"MEAN_MOTION_DOT":-0.01915795,"MEAN_MOTION_DDOT":0},{"OBJECT_NAME":"STARLINK-35167","OBJECT_ID":"2025-216C","EPOCH":"2025-10-11T06:00:02.000160","MEAN_MOTION":15.69057905,"ECCENTRICITY":0.00012129,"INCLINATION":53.1596,"RA_OF_ASC_NODE":310.8026,"ARG_OF_PERICENTER":88.5833,"MEAN_ANOMALY":162.5305,"EPHEMERIS_TYPE":0,"CLASSIFICATION_TYPE":"U","NORAD_CAT_ID":65736,"ELEMENT_SET_NO":999,"REV_AT_EPOCH":363,"BSTAR":-0.018413616,"MEAN_MOTION_DOT":-0.01924277,"MEAN_MOTION_DDOT":0}]
